{
  "norad_id": 63304,
  "name": "KINEIS-4B",
  "history": [
    {
      "epoch": "2026-03-27T07:43:28.329888Z",
      "apogee_km": 656.5291558189401,
      "perigee_km": 650.7167030612654,
      "latitude_deg": -1.0171030051298528e-05,
      "longitude_deg": -88.17956489902676,
      "height_km": 659.0852182273253,
      "semi_major_axis_km": 7031.7599294401025,
      "eccentricity": 0.0004133,
      "inclination_deg": 97.9812,
      "raan_deg": 212.4468,
      "arg_perigee_deg": 147.7098,
      "mean_anomaly_deg": 212.4363,
      "mean_motion_rev_day": 14.72335248
    }
  ]
}